     2.11           N: GPS NAV DATA                         RINEX VERSION / TYPE
teqc  2016Nov7                          20170308 00:35:56UTCPGM / RUN BY / DATE
    1.0240D-08  0.0000D+00 -5.9600D-08  0.0000D+00          ION ALPHA
    9.0110D+04  0.0000D+00 -1.9660D+05  0.0000D+00          ION BETA
    0.000000000000D+00 0.000000000000D+00   319488     1939 DELTA-UTC: A0,A1,T,W
    18                                                      LEAP SECONDS
Linux2.6.32-279.el6.x86_64|x86_64|gcc|Win64-MinGW64|=       COMMENT
NetR9 5.20          Receiver Operator   07-MAR-17 00:00:00  COMMENT
                                                            END OF HEADER
20 17  3  7  0  0  0.0 4.629534669220D-04 1.591615728100D-12 0.000000000000D+00
    7.900000000000D+01 6.406250000000D+00 5.378438319260D-09 7.563438379220D-01
    3.185123205180D-07 4.518657457080D-03 8.426606655120D-06 5.153638261800D+03
    1.728000000000D+05-5.029141902920D-08-6.464850480110D-02-6.891787052150D-08
    9.271890800270D-01 2.035625000000D+02 1.563147262120D+00-8.504997124410D-09
    2.742971398630D-10 1.000000000000D+00 1.939000000000D+03 0.000000000000D+00
    2.400000000000D+00 0.000000000000D+00-8.381903171540D-09 7.900000000000D+01
    1.656180000000D+05 4.000000000000D+00
28 17  3  7  0  0  0.0 5.949395708740D-04 2.955857780760D-12 0.000000000000D+00
    5.400000000000D+01 7.621875000000D+01 3.970879688790D-09 2.519584524750D+00
    3.797933459280D-06 1.987565646410D-02 4.597008228300D-06 5.153646862030D+03
    1.728000000000D+05 1.732259988780D-07-3.032199318860D+00-1.844018697740D-07
    9.891217783550D-01 2.995625000000D+02-1.572947953060D+00-7.725678948400D-09
    5.607376426880D-11 1.000000000000D+00 1.939000000000D+03 0.000000000000D+00
    3.400000000000D+00 0.000000000000D+00-1.117587089540D-08 5.400000000000D+01
    1.707660000000D+05 4.000000000000D+00
15 17  3  7  0  0  0.0-3.449348732830D-04-9.094947017730D-13 0.000000000000D+00
    1.600000000000D+01-5.875000000000D+00 5.498443317950D-09 8.133889386510D-01
   -2.086162567140D-07 9.079016046600D-03 6.830319762230D-06 5.153751317980D+03
    1.728000000000D+05-9.499490261080D-08 1.006865761900D+00 1.061707735060D-07
    9.293518039870D-01 2.313437500000D+02 5.765834998970D-01-8.611787286940D-09
   -2.435815747220D-10 1.000000000000D+00 1.939000000000D+03 0.000000000000D+00
    2.400000000000D+00 0.000000000000D+00-1.071020960810D-08 1.600000000000D+01
    1.656180000000D+05 4.000000000000D+00
18 17  3  7  0  0  0.0 6.030388176440D-04 2.387423592150D-12 0.000000000000D+00
    6.100000000000D+01 1.125000000000D+01 5.230932175040D-09 3.137084750530D+00
    5.252659320830D-07 1.772514241750D-02 7.931143045430D-06 5.153744581220D+03
    1.728000000000D+05 1.955777406690D-07-1.322307513700D-02-1.080334186550D-07
    9.258536099080D-01 2.048437500000D+02-1.826252064880D+00-8.087836890870D-09
    3.289422731950D-10 1.000000000000D+00 1.939000000000D+03 0.000000000000D+00
    2.400000000000D+00 0.000000000000D+00-1.117587089540D-08 6.100000000000D+01
    1.678080000000D+05 4.000000000000D+00
13 17  3  7  0  0  0.0-7.272744551300D-05-1.591615728100D-12 0.000000000000D+00
    7.100000000000D+01-6.093750000000D+00 4.528045754140D-09-5.486232601320D-02
   -4.321336746220D-07 4.033039440400D-03 7.640570402150D-06 5.153682525630D+03
    1.728000000000D+05-6.891787052150D-08 1.191505843120D+00-6.891787052150D-08
    9.697275398330D-01 2.365937500000D+02 1.844392480200D+00-8.082836682590D-09
   -2.442958901900D-10 1.000000000000D+00 1.939000000000D+03 0.000000000000D+00
    2.400000000000D+00 0.000000000000D+00-1.117587089540D-08 7.100000000000D+01
    1.656180000000D+05 4.000000000000D+00
24 17  3  7  0  0  0.0-3.149127587680D-05-5.684341886080D-13 0.000000000000D+00
    6.600000000000D+01 4.212500000000D+01 4.849844872650D-09-2.702290382500D-01
    2.276152372360D-06 5.581260193140D-03 9.385868906970D-06 5.153702995300D+03
    1.728000000000D+05 7.450580596920D-08 2.093387060650D+00 4.470348358150D-08
    9.460522895270D-01 1.927500000000D+02 4.709834400650D-01-8.252129448600D-09
   -1.664355041350D-10 1.000000000000D+00 1.939000000000D+03 0.000000000000D+00
    2.400000000000D+00 0.000000000000D+00 2.328306436540D-09 6.600000000000D+01
    1.667160000000D+05 4.000000000000D+00
21 17  3  7  0  0  0.0-5.185399204490D-04 1.705302565820D-12 0.000000000000D+00
    8.100000000000D+01-5.612500000000D+01 4.677337687030D-09-2.245442081160D+00
   -2.956017851830D-06 2.395287377290D-02 9.134411811830D-06 5.153728439330D+03
    1.728000000000D+05 3.222376108170D-07-1.053933982230D+00 0.000000000000D+00
    9.388601526880D-01 1.837500000000D+02-1.700340594420D+00-7.744608308310D-09
    1.275053111080D-10 1.000000000000D+00 1.939000000000D+03 0.000000000000D+00
    2.400000000000D+00 0.000000000000D+00-9.778887033460D-09 8.100000000000D+01
    1.656180000000D+05 4.000000000000D+00
 5 17  3  7  0  0  0.0-5.712872371080D-05 1.932676241270D-12 0.000000000000D+00
    5.100000000000D+01 1.190625000000D+01 4.936634202060D-09 2.472503559480D+00
    6.109476089480D-07 4.907494527290D-03 8.245930075650D-06 5.153694763180D+03
    1.728000000000D+05-6.705522537230D-08 1.399049124010D-02-8.568167686460D-08
    9.470975649750D-01 2.145625000000D+02 5.499637158760D-01-8.171411800670D-09
    3.500145795120D-10 1.000000000000D+00 1.939000000000D+03 0.000000000000D+00
    2.400000000000D+00 0.000000000000D+00-1.071020960810D-08 5.100000000000D+01
    1.656180000000D+05 4.000000000000D+00
 5 17  3  7  2  0  0.0-5.711428821090D-05 1.932676241270D-12 0.000000000000D+00
    5.200000000000D+01 8.843750000000D+00 4.923062208160D-09-2.760467388300D+00
    4.582107067110D-07 4.908257978970D-03 8.493661880490D-06 5.153693284990D+03
    1.800000000000D+05 7.450580596920D-09 1.393207106950D-02-4.842877388000D-08
    9.471003255020D-01 2.096562500000D+02 5.499208128780D-01-8.107123408520D-09
    3.421571093600D-10 1.000000000000D+00 1.939000000000D+03 0.000000000000D+00
    2.400000000000D+00 0.000000000000D+00-1.071020960810D-08 5.200000000000D+01
    1.728180000000D+05 4.000000000000D+00
24 17  3  7  2  0  0.0-3.149546682830D-05-5.684341886080D-13 0.000000000000D+00
    9.900000000000D+01 4.446875000000D+01 4.771627328860D-09 7.798057347930D-01
    2.283602952960D-06 5.581260309550D-03 9.870156645770D-06 5.153703361510D+03
    1.800000000000D+05-3.725290298460D-08 2.093328330340D+00 1.098960638050D-07
    9.460511440620D-01 1.824062500000D+02 4.711143683070D-01-8.174269062550D-09
   -2.392956819110D-10 1.000000000000D+00 1.939000000000D+03 0.000000000000D+00
    2.400000000000D+00 0.000000000000D+00 2.328306436540D-09 9.900000000000D+01
    1.728180000000D+05 4.000000000000D+00
15 17  3  7  2  0  0.0-3.449413925410D-04-9.094947017730D-13 0.000000000000D+00
    5.900000000000D+01-2.937500000000D+00 5.539159299650D-09 1.863607680960D+00
   -1.695007085800D-07 9.078814764510D-03 6.726011633870D-06 5.153749925610D+03
    1.800000000000D+05-1.564621925350D-07 1.006803745870D+00 1.490116119380D-08
    9.293499826540D-01 2.355937500000D+02 5.765059667020D-01-8.577857302190D-09
   -2.442958901900D-10 1.000000000000D+00 1.939000000000D+03 0.000000000000D+00
    2.400000000000D+00 0.000000000000D+00-1.071020960810D-08 5.900000000000D+01
    1.728180000000D+05 4.000000000000D+00
13 17  3  7  2  0  0.0-7.273908704520D-05-1.591615728100D-12 0.000000000000D+00
    7.200000000000D+01 5.625000000000D-01 4.529831542810D-09 9.954262384470D-01
    2.793967723850D-08 4.032205673870D-03 7.618218660350D-06 5.153680719380D+03
    1.800000000000D+05-5.587935447690D-09 1.191447683340D+00-1.024454832080D-07
    9.697256160960D-01 2.367500000000D+02 1.844279983260D+00-8.088194048600D-09
   -2.710827202550D-10 1.000000000000D+00 1.939000000000D+03 0.000000000000D+00
    2.400000000000D+00 0.000000000000D+00-1.117587089540D-08 7.200000000000D+01
    1.728180000000D+05 4.000000000000D+00
21 17  3  7  2  0  0.0-5.185273475940D-04 1.705302565820D-12 0.000000000000D+00
    8.200000000000D+01-5.525000000000D+01 4.950920511430D-09-1.195257259540D+00
   -2.635642886160D-06 2.395304339010D-02 9.199604392050D-06 5.153729951860D+03
    1.800000000000D+05-1.750886440280D-07-1.053990731740D+00 5.587935447690D-07
    9.388573555890D-01 1.917187500000D+02-1.700376849920D+00-8.469281350990D-09
   -3.285851154600D-11 1.000000000000D+00 1.939000000000D+03 0.000000000000D+00
    3.400000000000D+00 0.000000000000D+00-9.778887033460D-09 8.200000000000D+01
    1.728180000000D+05 4.000000000000D+00
28 17  3  7  2  0  0.0 5.949609912930D-04 2.955857780760D-12 0.000000000000D+00
    1.150000000000D+02 7.750000000000D+01 4.034810923210D-09-2.713411478420D+00
    3.961846232410D-06 1.987624610770D-02 4.474073648450D-06 5.153645830150D+03
    1.800000000000D+05 2.421438694000D-07-3.032256363890D+00 1.247972249980D-07
    9.891229677080D-01 3.044687500000D+02-1.572942734830D+00-7.748537043380D-09
    3.017982853960D-10 1.000000000000D+00 1.939000000000D+03 0.000000000000D+00
    4.850000000000D+00 0.000000000000D+00-1.117587089540D-08 1.150000000000D+02
    1.728180000000D+05 4.000000000000D+00
18 17  3  7  2  0  0.0 6.030560471120D-04 2.387423592150D-12 0.000000000000D+00
    6.200000000000D+01 1.443750000000D+01 5.263790686580D-09-2.095976690440D+00
    7.282942533490D-07 1.772553089540D-02 7.810071110730D-06 5.153743656160D+03
    1.800000000000D+05 2.868473529820D-07-1.328136657080D-02-1.303851604460D-08
    9.258561246640D-01 2.073437500000D+02-1.826232972330D+00-8.123195506560D-09
    3.389426897520D-10 1.000000000000D+00 1.939000000000D+03 0.000000000000D+00
    2.400000000000D+00 0.000000000000D+00-1.117587089540D-08 6.200000000000D+01
    1.728180000000D+05 4.000000000000D+00
